NORAD_CAT_ID,OBJECT_NAME,OBJECT_TYPE,EPOCH,MEAN_MOTION,ECCENTRICITY,INCLINATION,RA_OF_ASC_NODE,ARG_OF_PERICENTER,MEAN_ANOMALY,BSTAR,MEAN_MOTION_DOT,MEAN_MOTION_DDOT,TLE_LINE0,TLE_LINE1,TLE_LINE2,SEMIMAJOR_AXIS,PERIOD,APOGEE,PERIGEE,DECAYED
49747.0,STARLINK-3247,PAYLOAD,2024-01-08 12:42:25,15.08846251,0.000157,53.2176,100.7774,89.6319,270.4853,5.5824e-05,6.01e-06,0.0,0 STARLINK-3247,1 49747U 21115Z   24008.52946576  .00000601  00000-0  55824-4 0  9994,2 49747  53.2176 100.7774 0001570  89.6319 270.4853 15.08846251116098,6917.861,95.437,540.812,538.64,0.0
49747.0,STARLINK-3247,PAYLOAD,2024-01-09 12:33:13,15.08842213,0.0001431,53.2163,96.3155,90.4463,269.6694,5.7773e-05,6.32e-06,0.0,0 STARLINK-3247,1 49747U 21115Z   24009.52306757  .00000632  00000-0  57773-4 0  9995,2 49747  53.2163  96.3155 0001431  90.4463 269.6694 15.08842213117350,6917.874,95.437,540.729,538.749,0.0
49747.0,STARLINK-3247,PAYLOAD,2024-01-10 04:27:05,15.08837354,0.0001415,53.2163,93.3412,89.7956,270.3199,-4.6097e-05,-1.021e-05,0.0,0 STARLINK-3247,1 49747U 21115Z   24010.18547484 -.00001021  00000-0 -46097-4 0  9995,2 49747  53.2163  93.3412 0001415  89.7956 270.3199 15.08837354117453,6917.888,95.438,540.732,538.775,0.0
49747.0,STARLINK-3247,PAYLOAD,2024-01-10 10:48:37,15.08840382,0.00014,53.2162,92.1536,78.5222,281.5927,-2.0052e-05,-6.07e-06,0.0,0 STARLINK-3247,1 49747U 21115Z   24010.45043230 -.00000607  00000-0 -20052-4 0  9997,2 49747  53.2162  92.1536 0001400  78.5222 281.5927 15.08840382116381,6917.879,95.438,540.713,538.776,0.0
49747.0,STARLINK-3247,PAYLOAD,2024-01-11 04:17:51,15.08847438,0.0001295,53.2182,88.8825,99.671,260.4429,-3.4904e-05,-8.43e-06,0.0,0 STARLINK-3247,1 49747U 21115Z   24011.17906895 -.00000843  00000-0 -34904-4 0  9995,2 49747  53.2182  88.8825 0001295  99.6710 260.4429 15.08847438117602,6917.858,95.437,540.619,538.827,0.0
49747.0,STARLINK-3247,PAYLOAD,2024-01-11 10:39:24,15.08834761,0.0001379,53.2164,87.6926,88.3113,271.8037,0.0001115,1.487e-05,0.0,0 STARLINK-3247,1 49747U 21115Z   24011.44403173  .00001487  00000-0  11150-3 0  9996,2 49747  53.2164  87.6926 0001379  88.3113 271.8037 15.08834761116533,6917.896,95.438,540.715,538.807,0.0
49747.0,STARLINK-3247,PAYLOAD,2024-01-12 12:05:34,15.08838375,0.0001451,53.2171,82.9349,78.1134,282.0021,3.9401e-05,3.39e-06,0.0,0 STARLINK-3247,1 49747U 21115Z   24012.50387590  .00000339  00000-0  39401-4 0  9993,2 49747  53.2171  82.9349 0001451  78.1134 282.0021 15.08838375117802,6917.885,95.438,540.754,538.747,0.0
49747.0,STARLINK-3247,PAYLOAD,2024-01-12 13:40:57,15.08841845,0.0001512,53.2177,82.6375,95.4249,264.6916,6.4841e-05,7.44e-06,0.0,0 STARLINK-3247,1 49747U 21115Z   24012.57011224  .00000744  00000-0  64841-4 0  9994,2 49747  53.2177  82.6375 0001512  95.4249 264.6916 15.08841845116704,6917.875,95.437,540.786,538.694,0.0
49747.0,STARLINK-3247,PAYLOAD,2024-01-13 11:56:22,15.08836314,0.0001686,53.2165,78.4773,60.5277,299.5883,6.7224e-05,7.82e-06,0.0,0 STARLINK-3247,1 49747U 21115Z   24013.49747789  .00000782  00000-0  67224-4 0  9998,2 49747  53.2165  78.4773 0001686  60.5277 299.5883 15.08836314116842,6917.892,95.438,540.923,538.59,0.0
49747.0,STARLINK-3247,PAYLOAD,2024-01-14 03:50:13,15.08842086,0.0001424,53.2164,75.5032,83.3669,276.7485,9.3279e-06,-1.39e-06,0.0,0 STARLINK-3247,1 49747U 21115Z   24014.15987765 -.00000139  00000-0  93279-5 0  9999,2 49747  53.2164  75.5032 0001424  83.3669 276.7485 15.08842086118058,6917.874,95.437,540.724,538.754,0.0
49747.0,STARLINK-3247,PAYLOAD,2024-01-14 10:11:45,15.08842027,0.0001422,53.2163,74.3134,83.0444,277.071,8.7239e-06,-1.49e-06,0.0,0 STARLINK-3247,1 49747U 21115Z   24014.42483749 -.00000149  00000-0  87239-5 0  9992,2 49747  53.2163  74.3134 0001422  83.0444 277.0710 15.08842027116983,6917.874,95.437,540.723,538.755,0.0
49747.0,STARLINK-3247,PAYLOAD,2024-01-15 10:02:32,15.08844298,0.0001767,53.2165,69.8528,68.8344,291.2837,0.00011476,1.539e-05,0.0,0 STARLINK-3247,1 49747U 21115Z   24015.41843300  .00001539  00000-0  11476-3 0  9996,2 49747  53.2165  69.8528 0001767  68.8344 291.2837 15.08844298118244,6917.867,95.437,540.955,538.51,0.0
49747.0,STARLINK-3247,PAYLOAD,2024-01-16 03:31:47,15.08834786,0.000167,53.219,66.5839,65.3323,294.7843,2.0474e-05,3.8e-07,0.0,0 STARLINK-3247,1 49747U 21115Z   24016.14707934  .00000038  00000-0  20474-4 0  9991,2 49747  53.2190  66.5839 0001670  65.3323 294.7843 15.08834786118351,6917.896,95.438,540.917,538.606,0.0
49747.0,STARLINK-3247,PAYLOAD,2024-01-16 13:04:06,15.0883824,0.0001654,53.2173,64.7927,105.5899,254.5276,-7.5329e-06,-4.08e-06,0.0,0 STARLINK-3247,1 49747U 21115Z   24016.54451972 -.00000408  00000-0 -75329-5 0  9996,2 49747  53.2173  64.7927 0001654 105.5899 254.5276 15.08838240117304,6917.886,95.438,540.895,538.607,0.0
49747.0,STARLINK-3247,PAYLOAD,2024-01-17 09:44:06,15.08846412,0.0001785,53.2179,60.9259,105.988,254.1308,5.3942e-06,-2.02e-06,0.0,0 STARLINK-3247,1 49747U 21115Z   24017.40563479 -.00000202  00000-0  53942-5 0  9996,2 49747  53.2179  60.9259 0001785 105.9880 254.1308 15.08846412118544,6917.861,95.437,540.961,538.491,0.0
49747.0,STARLINK-3247,PAYLOAD,2024-01-18 03:13:22,15.08831728,0.0001473,53.2172,57.655,93.6472,266.4689,3.344e-05,2.44e-06,0.0,0 STARLINK-3247,1 49747U 21115Z   24018.13428645  .00000244  00000-0  33440-4 0  9997,2 49747  53.2172  57.6550 0001473  93.6472 266.4689 15.08831728118652,6917.906,95.438,540.79,538.752,0.0
49747.0,STARLINK-3247,PAYLOAD,2024-01-18 11:10:17,15.08839239,0.0001622,53.217,56.1722,84.1749,275.9428,0.00010993,1.462e-05,0.0,0 STARLINK-3247,1 49747U 21115Z   24018.46548131  .00001462  00000-0  10993-3 0  9996,2 49747  53.2170  56.1722 0001622  84.1749 275.9428 15.08839239118700,6917.883,95.438,540.87,538.626,0.0
49747.0,STARLINK-3247,PAYLOAD,2024-01-18 22:18:00,15.08822322,0.0001226,53.2192,54.0948,103.6391,256.4738,0.00023937,3.522e-05,0.0,0 STARLINK-3247,1 49747U 21115Z   24018.92916835  .00003522  00000-0  23937-3 0  9998,2 49747  53.2192  54.0948 0001226 103.6391 256.4738 15.08822322118771,6917.934,95.439,540.648,538.951,0.0
49747.0,STARLINK-3247,PAYLOAD,2024-01-19 11:01:04,15.08846959,0.0001739,53.216,51.7132,79.9522,280.1666,-3.7333e-05,-8.82e-06,0.0,0 STARLINK-3247,1 49747U 21115Z   24019.45908359 -.00000882  00000-0 -37333-4 0  9993,2 49747  53.2160  51.7132 0001739  79.9522 280.1666 15.08846959118850,6917.859,95.437,540.927,538.521,0.0
49747.0,STARLINK-3247,PAYLOAD,2024-01-19 12:36:27,15.08857497,0.0001882,53.2156,51.4122,111.6861,248.4332,-0.00015254,-2.716e-05,0.0,0 STARLINK-3247,1 49747U 21115Z   24019.52531836 -.00002716  00000-0 -15254-3 0  9998,2 49747  53.2156  51.4122 0001882 111.6861 248.4332 15.08857497117754,6917.827,95.436,540.994,538.39,0.0
49747.0,STARLINK-3247,PAYLOAD,2024-01-19 23:44:11,15.0882695,0.0001667,53.2167,49.3331,59.1022,301.0134,-2.2747e-05,-6.5e-06,0.0,0 STARLINK-3247,1 49747U 21115Z   24019.98901752 -.00000650  00000-0 -22747-4 0  9997,2 49747  53.2167  49.3331 0001667  59.1022 301.0134 15.08826950118937,6917.92,95.438,540.938,538.632,0.0
49747.0,STARLINK-3247,PAYLOAD,2024-01-20 09:16:29,15.08837776,0.0001522,53.2162,47.5438,88.3504,271.7663,7.5499e-05,9.14e-06,0.0,0 STARLINK-3247,1 49747U 21115Z   24020.38644793  .00000914  00000-0  75499-4 0  9995,2 49747  53.2162  47.5438 0001522  88.3504 271.7663 15.08837776118993,6917.887,95.438,540.805,538.699,0.0
49747.0,STARLINK-3247,PAYLOAD,2024-01-21 01:10:20,15.0883267,0.0001516,53.2167,44.57,100.4267,259.6897,4.8365e-05,4.82e-06,0.0,0 STARLINK-3247,1 49747U 21115Z   24021.04885344  .00000482  00000-0  48365-4 0  9990,2 49747  53.2167  44.5700 0001516 100.4267 259.6897 15.08832670119096,6917.903,95.438,540.817,538.719,0.0
49747.0,STARLINK-3247,PAYLOAD,2024-01-21 05:56:30,15.08836508,0.0001672,53.2161,43.6814,77.7859,282.332,7.5608e-05,9.15e-06,0.0,0 STARLINK-3247,1 49747U 21115Z   24021.24757270  .00000915  00000-0  75608-4 0  9999,2 49747  53.2161  43.6814 0001672  77.7859 282.3320 15.08836508118011,6917.891,95.438,540.913,538.599,0.0
49747.0,STARLINK-3247,PAYLOAD,2024-01-21 09:07:16,15.08841156,0.0001514,53.2168,43.0858,85.5997,274.5168,0.00011337,1.517e-05,0.0,0 STARLINK-3247,1 49747U 21115Z   24021.38004853  .00001517  00000-0  11337-3 0  9993,2 49747  53.2168  43.0858 0001514  85.5997 274.5168 15.08841156119148,6917.877,95.437,540.789,538.694,0.0
49747.0,STARLINK-3247,PAYLOAD,2024-01-22 05:47:17,15.08827279,0.0001956,53.2187,39.2231,67.7011,292.4189,0.00034821,5.256e-05,0.0,0 STARLINK-3247,1 49747U 21115Z   24022.24117465  .00005256  00000-0  34821-3 0  9990,2 49747  53.2187  39.2231 0001956  67.7011 292.4189 15.08827279118163,6917.919,95.438,541.137,538.431,0.0
49747.0,STARLINK-3247,PAYLOAD,2024-01-22 07:22:40,15.08829592,0.0001996,53.2185,38.9256,66.9138,293.2065,0.0003534,5.339e-05,0.0,0 STARLINK-3247,1 49747U 21115Z   24022.30741394  .00005339  00000-0  35340-3 0  9990,2 49747  53.2185  38.9256 0001996  66.9138 293.2065 15.08829592119285,6917.912,95.438,541.158,538.396,0.0
49747.0,STARLINK-3247,PAYLOAD,2024-01-23 05:38:04,15.08836465,0.0001792,53.2191,34.7627,80.5359,279.5835,1.3893e-05,-6.7e-07,0.0,0 STARLINK-3247,1 49747U 21115Z   24023.23477875 -.00000067  00000-0  13893-4 0  9997,2 49747  53.2191  34.7627 0001792  80.5359 279.5835 15.08836465118311,6917.891,95.438,540.996,538.517,0.0
49747.0,STARLINK-3247,PAYLOAD,2024-01-23 07:13:27,15.08837301,0.0001841,53.2187,34.4649,89.3271,270.7932,2.2757e-05,7.4e-07,0.0,0 STARLINK-3247,1 49747U 21115Z   24023.30101765  .00000074  00000-0  22757-4 0  9993,2 49747  53.2187  34.4649 0001841  89.3271 270.7932 15.08837301119437,6917.889,95.438,541.027,538.48,0.0
49747.0,STARLINK-3247,PAYLOAD,2024-01-24 05:28:51,15.08849504,0.0001615,53.2178,30.2963,98.2977,261.8198,3.3818e-05,2.5e-06,0.0,0 STARLINK-3247,1 49747U 21115Z   24024.22836941  .00000250  00000-0  33818-4 0  9992,2 49747  53.2178  30.2963 0001615  98.2977 261.8198 15.08849504119579,6917.851,95.437,540.834,538.599,0.0
